[{"OBJECT_NAME":"ONEWEB-0224","OBJECT_ID":"2021-045AD","EPOCH":"2026-01-16T04:53:25.848096","MEAN_MOTION":13.15550459,"ECCENTRICITY":8.231e-5,"INCLINATION":87.9005,"RA_OF_ASC_NODE":289.5682,"ARG_OF_PERICENTER":100.1875,"MEAN_ANOMALY":259.9348,"EPHEMERIS_TYPE":0,"CLASSIFICATION_TYPE":"U","NORAD_CAT_ID":48794,"ELEMENT_SET_NO":999,"REV_AT_EPOCH":22429,"BSTAR":0.00046611126,"MEAN_MOTION_DOT":1.88e-6,"MEAN_MOTION_DDOT":0},{"OBJECT_NAME":"ONEWEB-0233","OBJECT_ID":"2021-045AE","EPOCH":"2026-01-16T05:00:05.920704","MEAN_MOTION":13.15549013,"ECCENTRICITY":0.00012704,"INCLINATION":87.9004,"RA_OF_ASC_NODE":289.5774,"ARG_OF_PERICENTER":75.3075,"MEAN_ANOMALY":284.8196,"EPHEMERIS_TYPE":0,"CLASSIFICATION_TYPE":"U","NORAD_CAT_ID":48795,"ELEMENT_SET_NO":999,"REV_AT_EPOCH":22431,"BSTAR":0.00044298927,"MEAN_MOTION_DOT":1.8e-6,"MEAN_MOTION_DDOT":0},{"OBJECT_NAME":"ONEWEB-0190","OBJECT_ID":"2021-045AF","EPOCH":"2026-01-16T04:42:01.901376","MEAN_MOTION":13.15546785,"ECCENTRICITY":0.00012848,"INCLINATION":87.9005,"RA_OF_ASC_NODE":289.5407,"ARG_OF_PERICENTER":47.7296,"MEAN_ANOMALY":312.3944,"EPHEMERIS_TYPE":0,"CLASSIFICATION_TYPE":"U","NORAD_CAT_ID":48796,"ELEMENT_SET_NO":999,"REV_AT_EPOCH":22438,"BSTAR":0.00044854481,"MEAN_MOTION_DOT":1.82e-6,"MEAN_MOTION_DDOT":0},{"OBJECT_NAME":"ONEWEB-0236","OBJECT_ID":"2021-045AG","EPOCH":"2026-01-16T05:07:08.542848","MEAN_MOTION":13.15548864,"ECCENTRICITY":0.00016053,"INCLINATION":87.9003,"RA_OF_ASC_NODE":289.549,"ARG_OF_PERICENTER":79.7596,"MEAN_ANOMALY":280.3715,"EPHEMERIS_TYPE":0,"CLASSIFICATION_TYPE":"U","NORAD_CAT_ID":48797,"ELEMENT_SET_NO":999,"REV_AT_EPOCH":22427,"BSTAR":0.00046143467,"MEAN_MOTION_DOT":1.87e-6,"MEAN_MOTION_DDOT":0},{"OBJECT_NAME":"ONEWEB-0248","OBJECT_ID":"2021-045AH","EPOCH":"2026-01-16T05:25:24.119040","MEAN_MOTION":13.15549643,"ECCENTRICITY":0.00010645,"INCLINATION":87.9017,"RA_OF_ASC_NODE":289.5136,"ARG_OF_PERICENTER":61.5796,"MEAN_ANOMALY":298.5441,"EPHEMERIS_TYPE":0,"CLASSIFICATION_TYPE":"U","NORAD_CAT_ID":48798,"ELEMENT_SET_NO":999,"REV_AT_EPOCH":22443,"BSTAR":-9.6933457e-5,"MEAN_MOTION_DOT":-2.4e-7,"MEAN_MOTION_DDOT":0},{"OBJECT_NAME":"ONEWEB-0225","OBJECT_ID":"2021-045AJ","EPOCH":"2026-01-16T05:57:20.998944","MEAN_MOTION":13.15548716,"ECCENTRICITY":0.00013195,"INCLINATION":87.9006,"RA_OF_ASC_NODE":289.5303,"ARG_OF_PERICENTER":53.569,"MEAN_ANOMALY":306.5562,"EPHEMERIS_TYPE":0,"CLASSIFICATION_TYPE":"U","NORAD_CAT_ID":48799,"ELEMENT_SET_NO":999,"REV_AT_EPOCH":22444,"BSTAR":-0.0003472314,"MEAN_MOTION_DOT":-1.18e-6,"MEAN_MOTION_DDOT":0},{"OBJECT_NAME":"ONEWEB-0215","OBJECT_ID":"2021-045AK","EPOCH":"2026-01-16T05:13:59.397312","MEAN_MOTION":13.15548756,"ECCENTRICITY":0.00010861,"INCLINATION":87.902,"RA_OF_ASC_NODE":289.5024,"ARG_OF_PERICENTER":52.1566,"MEAN_ANOMALY":307.9662,"EPHEMERIS_TYPE":0,"CLASSIFICATION_TYPE":"U","NORAD_CAT_ID":48800,"ELEMENT_SET_NO":999,"REV_AT_EPOCH":22431,"BSTAR":0.00022751308,"MEAN_MOTION_DOT":9.8e-7,"MEAN_MOTION_DDOT":0},{"OBJECT_NAME":"ONEWEB-0216","OBJECT_ID":"2021-045AL","EPOCH":"2026-01-16T05:27:40.754592","MEAN_MOTION":13.15548768,"ECCENTRICITY":0.00017391,"INCLINATION":87.9008,"RA_OF_ASC_NODE":289.5261,"ARG_OF_PERICENTER":69.2956,"MEAN_ANOMALY":290.836,"EPHEMERIS_TYPE":0,"CLASSIFICATION_TYPE":"U","NORAD_CAT_ID":48801,"ELEMENT_SET_NO":999,"REV_AT_EPOCH":22432,"BSTAR":-0.0001407748,"MEAN_MOTION_DOT":-4.0e-7,"MEAN_MOTION_DDOT":0},{"OBJECT_NAME":"ONEWEB-0239","OBJECT_ID":"2021-045AM","EPOCH":"2026-01-16T05:34:30.644832","MEAN_MOTION":13.15546962,"ECCENTRICITY":8.657e-5,"INCLINATION":87.9009,"RA_OF_ASC_NODE":289.5394,"ARG_OF_PERICENTER":54.5045,"MEAN_ANOMALY":305.6166,"EPHEMERIS_TYPE":0,"CLASSIFICATION_TYPE":"U","NORAD_CAT_ID":48802,"ELEMENT_SET_NO":999,"REV_AT_EPOCH":22436,"BSTAR":-0.0002852358,"MEAN_MOTION_DOT":-9.5e-7,"MEAN_MOTION_DDOT":0},{"OBJECT_NAME":"ONEWEB-0249","OBJECT_ID":"2021-060A","EPOCH":"2026-01-16T05:02:39.089760","MEAN_MOTION":13.16594753,"ECCENTRICITY":0.00013569,"INCLINATION":87.903,"RA_OF_ASC_NODE":259.0368,"ARG_OF_PERICENTER":81.6528,"MEAN_ANOMALY":278.4757,"EPHEMERIS_TYPE":0,"CLASSIFICATION_TYPE":"U","NORAD_CAT_ID":48967,"ELEMENT_SET_NO":999,"REV_AT_EPOCH":21961,"BSTAR":8.5088679e-5,"MEAN_MOTION_DOT":4.5e-7,"MEAN_MOTION_DDOT":0},{"OBJECT_NAME":"ONEWEB-0250","OBJECT_ID":"2021-060B","EPOCH":"2026-01-16T03:56:07.738944","MEAN_MOTION":13.25823751,"ECCENTRICITY":0.00011751,"INCLINATION":87.9025,"RA_OF_ASC_NODE":257.2987,"ARG_OF_PERICENTER":123.2715,"MEAN_ANOMALY":236.8534,"EPHEMERIS_TYPE":0,"CLASSIFICATION_TYPE":"U","NORAD_CAT_ID":48968,"ELEMENT_SET_NO":999,"REV_AT_EPOCH":22007,"BSTAR":0.00014446144,"MEAN_MOTION_DOT":7.7e-7,"MEAN_MOTION_DDOT":0},{"OBJECT_NAME":"ONEWEB-0252","OBJECT_ID":"2021-060D","EPOCH":"2026-01-16T03:58:48.241632","MEAN_MOTION":13.16593229,"ECCENTRICITY":0.00016278,"INCLINATION":87.9029,"RA_OF_ASC_NODE":259.0397,"ARG_OF_PERICENTER":71.4468,"MEAN_ANOMALY":288.684,"EPHEMERIS_TYPE":0,"CLASSIFICATION_TYPE":"U","NORAD_CAT_ID":48970,"ELEMENT_SET_NO":999,"REV_AT_EPOCH":21965,"BSTAR":-4.2208602e-5,"MEAN_MOTION_DOT":-3.0e-8,"MEAN_MOTION_DDOT":0},{"OBJECT_NAME":"ONEWEB-0253","OBJECT_ID":"2021-060E","EPOCH":"2026-01-16T05:32:17.640672","MEAN_MOTION":13.1659503,"ECCENTRICITY":0.00013778,"INCLINATION":87.9032,"RA_OF_ASC_NODE":259.0314,"ARG_OF_PERICENTER":73.2624,"MEAN_ANOMALY":286.8658,"EPHEMERIS_TYPE":0,"CLASSIFICATION_TYPE":"U","NORAD_CAT_ID":48971,"ELEMENT_SET_NO":999,"REV_AT_EPOCH":21959,"BSTAR":-0.00010359524,"MEAN_MOTION_DOT":-2.7e-7,"MEAN_MOTION_DDOT":0},{"OBJECT_NAME":"ONEWEB-0254","OBJECT_ID":"2021-060F","EPOCH":"2026-01-16T03:56:30.850944","MEAN_MOTION":13.16595893,"ECCENTRICITY":0.00011341,"INCLINATION":87.9035,"RA_OF_ASC_NODE":259.0379,"ARG_OF_PERICENTER":76.9478,"MEAN_ANOMALY":283.1779,"EPHEMERIS_TYPE":0,"CLASSIFICATION_TYPE":"U","NORAD_CAT_ID":48972,"ELEMENT_SET_NO":999,"REV_AT_EPOCH":21958,"BSTAR":-7.4045134e-5,"MEAN_MOTION_DOT":-1.5e-7,"MEAN_MOTION_DDOT":0},{"OBJECT_NAME":"ONEWEB-0255","OBJECT_ID":"2021-060G","EPOCH":"2026-01-16T03:01:49.251072","MEAN_MOTION":13.1659513,"ECCENTRICITY":0.00012353,"INCLINATION":87.9026,"RA_OF_ASC_NODE":259.0582,"ARG_OF_PERICENTER":75.2651,"MEAN_ANOMALY":284.8616,"EPHEMERIS_TYPE":0,"CLASSIFICATION_TYPE":"U","NORAD_CAT_ID":48973,"ELEMENT_SET_NO":999,"REV_AT_EPOCH":21965,"BSTAR":0.00032459499,"MEAN_MOTION_DOT":1.37e-6,"MEAN_MOTION_DDOT":0},{"OBJECT_NAME":"ONEWEB-0256","OBJECT_ID":"2021-060H","EPOCH":"2026-01-16T05:28:51.743424","MEAN_MOTION":13.16593192,"ECCENTRICITY":0.00016242,"INCLINATION":87.9021,"RA_OF_ASC_NODE":259.0445,"ARG_OF_PERICENTER":77.1803,"MEAN_ANOMALY":282.9509,"EPHEMERIS_TYPE":0,"CLASSIFICATION_TYPE":"U","NORAD_CAT_ID":48974,"ELEMENT_SET_NO":999,"REV_AT_EPOCH":21963,"BSTAR":5.5158719e-5,"MEAN_MOTION_DOT":3.4e-7,"MEAN_MOTION_DDOT":0},{"OBJECT_NAME":"ONEWEB-0257","OBJECT_ID":"2021-060J","EPOCH":"2026-01-16T04:26:10.030848","MEAN_MOTION":13.1659511,"ECCENTRICITY":0.00013835,"INCLINATION":87.9029,"RA_OF_ASC_NODE":259.0348,"ARG_OF_PERICENTER":71.8011,"MEAN_ANOMALY":288.327,"EPHEMERIS_TYPE":0,"CLASSIFICATION_TYPE":"U","NORAD_CAT_ID":48975,"ELEMENT_SET_NO":999,"REV_AT_EPOCH":21958,"BSTAR":0.00031328413,"MEAN_MOTION_DOT":1.33e-6,"MEAN_MOTION_DDOT":0},{"OBJECT_NAME":"ONEWEB-0258","OBJECT_ID":"2021-060K","EPOCH":"2026-01-16T04:28:27.049152","MEAN_MOTION":13.16594696,"ECCENTRICITY":0.0001431,"INCLINATION":87.9025,"RA_OF_ASC_NODE":259.0485,"ARG_OF_PERICENTER":82.2672,"MEAN_ANOMALY":277.8622,"EPHEMERIS_TYPE":0,"CLASSIFICATION_TYPE":"U","NORAD_CAT_ID":48976,"ELEMENT_SET_NO":999,"REV_AT_EPOCH":21959,"BSTAR":0.00010669512,"MEAN_MOTION_DOT":5.4e-7,"MEAN_MOTION_DDOT":0},{"OBJECT_NAME":"ONEWEB-0259","OBJECT_ID":"2021-060L","EPOCH":"2026-01-16T04:19:19.765632","MEAN_MOTION":13.16594906,"ECCENTRICITY":0.0001308,"INCLINATION":87.9029,"RA_OF_ASC_NODE":259.0457,"ARG_OF_PERICENTER":77.0033,"MEAN_ANOMALY":283.1244,"EPHEMERIS_TYPE":0,"CLASSIFICATION_TYPE":"U","NORAD_CAT_ID":48977,"ELEMENT_SET_NO":999,"REV_AT_EPOCH":21962,"BSTAR":0.00021737801,"MEAN_MOTION_DOT":9.6e-7,"MEAN_MOTION_DDOT":0},{"OBJECT_NAME":"ONEWEB-0260","OBJECT_ID":"2021-060M","EPOCH":"2026-01-16T04:06:47.069568","MEAN_MOTION":13.16593036,"ECCENTRICITY":0.00018362,"INCLINATION":87.9018,"RA_OF_ASC_NODE":259.0571,"ARG_OF_PERICENTER":70.5626,"MEAN_ANOMALY":289.5703,"EPHEMERIS_TYPE":0,"CLASSIFICATION_TYPE":"U","NORAD_CAT_ID":48978,"ELEMENT_SET_NO":999,"REV_AT_EPOCH":21960,"BSTAR":6.1059176e-5,"MEAN_MOTION_DOT":3.6e-7,"MEAN_MOTION_DDOT":0},{"OBJECT_NAME":"ONEWEB-0261","OBJECT_ID":"2021-060N","EPOCH":"2026-01-16T05:12:53.601984","MEAN_MOTION":13.16592665,"ECCENTRICITY":0.00013268,"INCLINATION":87.9022,"RA_OF_ASC_NODE":259.0502,"ARG_OF_PERICENTER":63.3028,"MEAN_ANOMALY":296.8239,"EPHEMERIS_TYPE":0,"CLASSIFICATION_TYPE":"U","NORAD_CAT_ID":48979,"ELEMENT_SET_NO":999,"REV_AT_EPOCH":21966,"BSTAR":8.4697595e-5,"MEAN_MOTION_DOT":4.5e-7,"MEAN_MOTION_DDOT":0},{"OBJECT_NAME":"ONEWEB-0262","OBJECT_ID":"2021-060P","EPOCH":"2026-01-16T04:44:24.584928","MEAN_MOTION":13.1659473,"ECCENTRICITY":0.00011774,"INCLINATION":87.903,"RA_OF_ASC_NODE":259.0311,"ARG_OF_PERICENTER":85.7389,"MEAN_ANOMALY":274.3876,"EPHEMERIS_TYPE":0,"CLASSIFICATION_TYPE":"U","NORAD_CAT_ID":48980,"ELEMENT_SET_NO":999,"REV_AT_EPOCH":21962,"BSTAR":0.0002871905,"MEAN_MOTION_DOT":1.23e-6,"MEAN_MOTION_DDOT":0},{"OBJECT_NAME":"ONEWEB-0263","OBJECT_ID":"2021-060Q","EPOCH":"2026-01-16T05:30:00.068544","MEAN_MOTION":13.16595236,"ECCENTRICITY":0.00011945,"INCLINATION":87.9026,"RA_OF_ASC_NODE":259.037,"ARG_OF_PERICENTER":66.9963,"MEAN_ANOMALY":293.1294,"EPHEMERIS_TYPE":0,"CLASSIFICATION_TYPE":"U","NORAD_CAT_ID":48981,"ELEMENT_SET_NO":999,"REV_AT_EPOCH":21959,"BSTAR":1.2268753e-5,"MEAN_MOTION_DOT":1.8e-7,"MEAN_MOTION_DDOT":0}]
